[{"OBJECT_NAME":"STARLINK-32736","OBJECT_ID":"2024-251M","EPOCH":"2026-03-09T23:47:24.831168","MEAN_MOTION":15.30218861,"ECCENTRICITY":0.00013094,"INCLINATION":53.1639,"RA_OF_ASC_NODE":333.9725,"ARG_OF_PERICENTER":91.7034,"MEAN_ANOMALY":268.4116,"EPHEMERIS_TYPE":0,"CLASSIFICATION_TYPE":"U","NORAD_CAT_ID":62443,"ELEMENT_SET_NO":999,"REV_AT_EPOCH":6783,"BSTAR":0.0011104403,"MEAN_MOTION_DOT":0.00032693,"MEAN_MOTION_DDOT":0},{"OBJECT_NAME":"OBJECT H","OBJECT_ID":"2025-055H","EPOCH":"2026-03-09T23:29:50.051328","MEAN_MOTION":15.30330066,"ECCENTRICITY":0.00075967,"INCLINATION":97.636,"RA_OF_ASC_NODE":211.9572,"ARG_OF_PERICENTER":140.4354,"MEAN_ANOMALY":219.7441,"EPHEMERIS_TYPE":0,"CLASSIFICATION_TYPE":"U","NORAD_CAT_ID":63298,"ELEMENT_SET_NO":999,"REV_AT_EPOCH":5423,"BSTAR":0.0015582864,"MEAN_MOTION_DOT":0.00045901,"MEAN_MOTION_DDOT":0}]
